<?xml version="1.0" encoding="UTF-8"?>
<ndm xmlns:xsi="http://www.w3.org/2001/XMLSchema-instance" xsi:noNamespaceSchemaLocation="https://sanaregistry.org/r/ndmxml_unqualified/ndmxml-2.0.0-master-2.0.xsd">
<omm id="CCSDS_OMM_VERS" version="2.0">
<header><CREATION_DATE/><ORIGINATOR/></header><body><segment><metadata><OBJECT_NAME>KUIPER-00251</OBJECT_NAME><OBJECT_ID>2025-301Z</OBJECT_ID><CENTER_NAME>EARTH</CENTER_NAME><REF_FRAME>TEME</REF_FRAME><TIME_SYSTEM>UTC</TIME_SYSTEM><MEAN_ELEMENT_THEORY>SGP4</MEAN_ELEMENT_THEORY></metadata><data><meanElements><EPOCH>2025-12-30T06:50:44.429280</EPOCH><MEAN_MOTION>15.34999796</MEAN_MOTION><ECCENTRICITY>.00088285</ECCENTRICITY><INCLINATION>51.8674</INCLINATION><RA_OF_ASC_NODE>40.5942</RA_OF_ASC_NODE><ARG_OF_PERICENTER>148.0161</ARG_OF_PERICENTER><MEAN_ANOMALY>212.1362</MEAN_ANOMALY></meanElements><tleParameters><EPHEMERIS_TYPE>0</EPHEMERIS_TYPE><CLASSIFICATION_TYPE>U</CLASSIFICATION_TYPE><NORAD_CAT_ID>67156</NORAD_CAT_ID><ELEMENT_SET_NO>999</ELEMENT_SET_NO><REV_AT_EPOCH>325</REV_AT_EPOCH><BSTAR>.85093315E-3</BSTAR><MEAN_MOTION_DOT>.29096E-3</MEAN_MOTION_DOT><MEAN_MOTION_DDOT>0</MEAN_MOTION_DDOT></tleParameters></data></segment></body></omm>
<omm id="CCSDS_OMM_VERS" version="2.0">
<header><CREATION_DATE/><ORIGINATOR/></header><body><segment><metadata><OBJECT_NAME>KUIPER-00252</OBJECT_NAME><OBJECT_ID>2025-301AA</OBJECT_ID><CENTER_NAME>EARTH</CENTER_NAME><REF_FRAME>TEME</REF_FRAME><TIME_SYSTEM>UTC</TIME_SYSTEM><MEAN_ELEMENT_THEORY>SGP4</MEAN_ELEMENT_THEORY></metadata><data><meanElements><EPOCH>2025-12-30T06:56:52.763712</EPOCH><MEAN_MOTION>15.34370146</MEAN_MOTION><ECCENTRICITY>.00098455</ECCENTRICITY><INCLINATION>51.8667</INCLINATION><RA_OF_ASC_NODE>40.6214</RA_OF_ASC_NODE><ARG_OF_PERICENTER>158.7216</ARG_OF_PERICENTER><MEAN_ANOMALY>201.4180</MEAN_ANOMALY></meanElements><tleParameters><EPHEMERIS_TYPE>0</EPHEMERIS_TYPE><CLASSIFICATION_TYPE>U</CLASSIFICATION_TYPE><NORAD_CAT_ID>67157</NORAD_CAT_ID><ELEMENT_SET_NO>999</ELEMENT_SET_NO><REV_AT_EPOCH>306</REV_AT_EPOCH><BSTAR>.11485675E-2</BSTAR><MEAN_MOTION_DOT>.38681E-3</MEAN_MOTION_DOT><MEAN_MOTION_DDOT>0</MEAN_MOTION_DDOT></tleParameters></data></segment></body></omm>
<omm id="CCSDS_OMM_VERS" version="2.0">
<header><CREATION_DATE/><ORIGINATOR/></header><body><segment><metadata><OBJECT_NAME>KUIPER-00261</OBJECT_NAME><OBJECT_ID>2025-301AB</OBJECT_ID><CENTER_NAME>EARTH</CENTER_NAME><REF_FRAME>TEME</REF_FRAME><TIME_SYSTEM>UTC</TIME_SYSTEM><MEAN_ELEMENT_THEORY>SGP4</MEAN_ELEMENT_THEORY></metadata><data><meanElements><EPOCH>2025-12-30T06:41:24.587520</EPOCH><MEAN_MOTION>15.35519945</MEAN_MOTION><ECCENTRICITY>.0006025</ECCENTRICITY><INCLINATION>51.8699</INCLINATION><RA_OF_ASC_NODE>40.5535</RA_OF_ASC_NODE><ARG_OF_PERICENTER>131.9362</ARG_OF_PERICENTER><MEAN_ANOMALY>228.2139</MEAN_ANOMALY></meanElements><tleParameters><EPHEMERIS_TYPE>0</EPHEMERIS_TYPE><CLASSIFICATION_TYPE>U</CLASSIFICATION_TYPE><NORAD_CAT_ID>67158</NORAD_CAT_ID><ELEMENT_SET_NO>999</ELEMENT_SET_NO><REV_AT_EPOCH>306</REV_AT_EPOCH><BSTAR>.84171991E-3</BSTAR><MEAN_MOTION_DOT>.29246E-3</MEAN_MOTION_DOT><MEAN_MOTION_DDOT>0</MEAN_MOTION_DDOT></tleParameters></data></segment></body></omm>
<omm id="CCSDS_OMM_VERS" version="2.0">
<header><CREATION_DATE/><ORIGINATOR/></header><body><segment><metadata><OBJECT_NAME>KUIPER-00265</OBJECT_NAME><OBJECT_ID>2025-301AC</OBJECT_ID><CENTER_NAME>EARTH</CENTER_NAME><REF_FRAME>TEME</REF_FRAME><TIME_SYSTEM>UTC</TIME_SYSTEM><MEAN_ELEMENT_THEORY>SGP4</MEAN_ELEMENT_THEORY></metadata><data><meanElements><EPOCH>2025-12-30T06:28:26.323104</EPOCH><MEAN_MOTION>15.36586542</MEAN_MOTION><ECCENTRICITY>.0002019</ECCENTRICITY><INCLINATION>51.8735</INCLINATION><RA_OF_ASC_NODE>40.4938</RA_OF_ASC_NODE><ARG_OF_PERICENTER>102.0808</ARG_OF_PERICENTER><MEAN_ANOMALY>258.0404</MEAN_ANOMALY></meanElements><tleParameters><EPHEMERIS_TYPE>0</EPHEMERIS_TYPE><CLASSIFICATION_TYPE>U</CLASSIFICATION_TYPE><NORAD_CAT_ID>67159</NORAD_CAT_ID><ELEMENT_SET_NO>999</ELEMENT_SET_NO><REV_AT_EPOCH>309</REV_AT_EPOCH><BSTAR>.68699462E-3</BSTAR><MEAN_MOTION_DOT>.24613E-3</MEAN_MOTION_DOT><MEAN_MOTION_DDOT>0</MEAN_MOTION_DDOT></tleParameters></data></segment></body></omm>
</ndm>
