KUIPER-00251            
1 67156U 25301Z   25364.28523645  .00029096  00000+0  85093-3 0  9994
2 67156  51.8674  40.5942 0008828 148.0161 212.1362 15.34999796  3258
KUIPER-00252            
1 67157U 25301AA  25364.28949958  .00038681  00000+0  11486-2 0  9998
2 67157  51.8667  40.6214 0009845 158.7216 201.4180 15.34370146  3063
KUIPER-00261            
1 67158U 25301AB  25364.27875680  .00029246  00000+0  84172-3 0  9998
2 67158  51.8699  40.5535 0006025 131.9362 228.2139 15.35519945  3060
KUIPER-00265            
1 67159U 25301AC  25364.26974911  .00024613  00000+0  68699-3 0  9994
2 67159  51.8735  40.4938 0002019 102.0808 258.0404 15.36586542  3098
